[{"OBJECT_NAME":"STARLINK-5719","OBJECT_ID":"2023-020AS","EPOCH":"2026-03-09T22:00:01.999584","MEAN_MOTION":15.05188351,"ECCENTRICITY":0.00017305,"INCLINATION":43.0005,"RA_OF_ASC_NODE":350.6387,"ARG_OF_PERICENTER":226.8132,"MEAN_ANOMALY":41.2443,"EPHEMERIS_TYPE":0,"CLASSIFICATION_TYPE":"U","NORAD_CAT_ID":55609,"ELEMENT_SET_NO":999,"REV_AT_EPOCH":557,"BSTAR":0.0011512723,"MEAN_MOTION_DOT":0.00016524,"MEAN_MOTION_DDOT":0},{"OBJECT_NAME":"SEDNA-1","OBJECT_ID":"2024-149DS","EPOCH":"2026-03-09T18:22:48.434304","MEAN_MOTION":15.05597965,"ECCENTRICITY":0.00083444,"INCLINATION":97.6673,"RA_OF_ASC_NODE":149.7617,"ARG_OF_PERICENTER":330.8481,"MEAN_ANOMALY":29.2278,"EPHEMERIS_TYPE":0,"CLASSIFICATION_TYPE":"U","NORAD_CAT_ID":60580,"ELEMENT_SET_NO":999,"REV_AT_EPOCH":8542,"BSTAR":0.00060833619,"MEAN_MOTION_DOT":8.721e-5,"MEAN_MOTION_DDOT":0}]
